{
  "type": "FeatureCollection",
  "name": "malla_zona",
  "crs": { "type": "name", "properties": { "name": "urn:ogc:def:crs:OGC:1.3:CRS84" } },
  "features": [
    {
      "type": "Feature",
      "properties": {
        "nombre": "Zona bajo malla monofilamento",
        "instalacion": "diciembre 2018",
        "lote": "El Abrojito"
      },
      "geometry": {
        "type": "Polygon",
        "coordinates": [
          [
            [-57.89280532947353, -38.21437479546886],
            [-57.89216742560406, -38.21498006104252],
            [-57.89359564762759, -38.21586199883721],
            [-57.89216070892473, -38.21719435681157],
            [-57.89079402689477, -38.21627059554636],
            [-57.89128497519113, -38.21580087537073],
            [-57.89026352794878, -38.21515384367873],
            [-57.89182473818502, -38.21374583960658],
            [-57.89280532947353, -38.21437479546886]
          ]
        ]
      }
    }
  ]
}
